ONEWEB-0393             
1 50473U 21132E   23222.39737428  .00005442  00000+0  13964-1 0  9990
2 50473  87.9167 212.8118 0002286  86.4091 273.7302 13.17699377 82207
ONEWEB-0394             
1 50474U 21132F   23222.38934828 -.00000169  00000+0 -46075-3 0  9997
2 50474  87.9271 182.5709 0002073  77.2265 282.9098 13.18685550 85563
ONEWEB-0395             
1 50475U 21132G   23222.40999955  .00000076  00000+0  17810-3 0  9993
2 50475  87.8887 228.0273 0002308  86.4625 273.6767 13.11414620 80444
ONEWEB-0396             
1 50476U 21132H   23222.61067216  .00000069  00000+0  14143-3 0  9991
2 50476  87.9270 182.5193 0001996  74.7779 285.3573 13.18687730 85631
ONEWEB-0397             
1 50477U 21132J   23222.85305025 -.00000008  00000+0 -52027-4 0  9990
2 50477  87.9270 182.4723 0001988  72.5901 287.5448 13.18686911 85640
ONEWEB-0398             
1 50478U 21132K   23222.98857911  .00000109  00000+0  27254-3 0  9994
2 50478  87.8888 227.9068 0002639  88.0551 272.0879 13.11419596 80423
ONEWEB-0399             
1 50479U 21132L   23221.75513126  .00000268  00000+0  71966-3 0  9991
2 50479  87.8891 228.1632 0001725  88.5349 271.5976 13.11416150 80259
ONEWEB-0400             
1 50480U 21132M   23223.13548353 -.00000002  00000+0 -36696-4 0  9997
2 50480  87.9275 182.4675 0002295  84.7358 275.4036 13.18688065 85683
